GLOBALSTAR M070 [+]     
1 32264U 07048B   24047.74108594 -.00000064  00000+0  21946-3 0  9996
2 32264  51.9738 170.3749 0001216 110.1487  37.3396 12.62286694752231
GLOBALSTAR M066 [+]     
1 32265U 07048C   24047.90833749 -.00000082  00000+0  12052-3 0  9990
2 32265  51.9693  31.8743 0000495 299.1318  77.1693 12.62260125754523
GLOBALSTAR M068 [-]     
1 32266U 07048D   24047.84740955 -.00000018  00000+0  47773-3 0  9997
2 32266  51.9914 344.7280 0001007 118.5719 284.9047 12.62780078756113
GLOBALSTAR M079 [+]     
1 37188U 10054A   24047.76860069 -.00000079  00000+0  13934-3 0  9995
2 37188  52.0024 180.5216 0000699  96.2326  51.4535 12.62266622615029
GLOBALSTAR M074 [+]     
1 37189U 10054B   24047.79875983 -.00000083  00000+0  11759-3 0  9998
2 37189  52.0000 179.8282 0000941 105.4842  58.9340 12.62265336615638
GLOBALSTAR M076 [+]     
1 37190U 10054C   24047.63371344 -.00000087  00000+0  93078-4 0  9994
2 37190  52.0013 180.4596 0001035  74.2326 298.5612 12.62274755615331
GLOBALSTAR M077 [+]     
1 37191U 10054D   24047.54131749 -.00000076  00000+0  15775-3 0  9993
2 37191  52.0068 137.4571 0000820 113.1268 259.8262 12.62269660615695
